GLOBALSTAR M001 [-]     
1 25162U 98008A   23225.24706788 -.00000101  00000+0 -33353-4 0  9991
2 25162  52.0027 134.6988 0001406 296.0670 231.6257 12.38166686160330
GLOBALSTAR M004 [-]     
1 25163U 98008B   23226.44169209 -.00000129  00000+0 -13866-3 0  9992
2 25163  52.0002 306.4448 0002879 225.7259 214.3713 12.63335448176751
GLOBALSTAR M002 [-]     
1 25164U 98008C   23226.10633429 -.00000087  00000+0 -20574-3 0  9993
2 25164  52.0004 127.8184 0001866   4.8179 355.2658 11.61494973105928
GLOBALSTAR M003 [-]     
1 25165U 98008D   23226.08408097  .00000051  00000+0  15033-2 0  9994
2 25165  51.9679 232.9153 0007730  19.4772  21.9806 12.11928386151699
GLOBALSTAR M014 [-]     
1 25306U 98023A   23226.06998836 -.00000054  00000+0  44003-3 0  9995
2 25306  51.9840  65.2799 0000652 135.1478  43.1718 11.65458811112676
GLOBALSTAR M006 [-]     
1 25307U 98023B   23226.05372524 -.00000083  00000+0 -15544-3 0  9996
2 25307  51.9935  92.6373 0003735 349.7620 179.1956 11.58153220138941
GLOBALSTAR M015 [-]     
1 25308U 98023C   23226.13483203 -.00000090  00000+0 -38026-3 0  9991
2 25308  51.9804 160.0719 0012626 322.4319  50.3653 11.48849164117098
GLOBALSTAR M008 [-]     
1 25309U 98023D   23226.05907507 -.00000095  00000+0  58893-5 0  9991
2 25309  51.9996 349.5478 0002662 179.3647 351.9520 12.36025371154918
